COSMOS 2576             
1 59773U 24092A   26068.82603826  .00015211  00000+0  56283-3 0  9991
2 59773  97.4253 186.0053 0005946 159.7731 200.3745 15.27760963101271
STARLINK-33973          
1 63894U 25095E   26068.30423170  .00039295  00000+0  14293-2 0  9991
2 63894  42.9999 177.9814 0001626 273.2693  86.7973 15.27592782 47737
